[Satellite]
VERSION=1.1
NAME=BULGARIASAT-1
NICKNAME=BULGARIASAT-1
TLE1=1 42801U 17038A   17184.61851461 -.00000025  00000-0  00000-0 0  9995
TLE2=2 42801   0.0569 253.0356 0028624 137.2195 116.1452  1.00116993   113
